STARLINK-34589          
1 64747U 25144Z   26156.18550832  .00036653  00000+0  12426-2 0  9995
2 64747  53.1581 122.0853 0001452  91.2384 268.8783 15.30223809 53286
STARLINK-34536          
1 64748U 25144AA  26156.23027933  .00028094  00000+0  95653-3 0  9997
2 64748  53.1573 134.4968 0001303  95.7704 264.3446 15.30218316 53118
STARLINK-34595          
1 64749U 25144AB  26156.23133439  .00015489  00000+0  53394-3 0  9997
2 64749  53.1582 134.4992 0001424  81.7944 278.3218 15.30202940 53119
STARLINK-34531          
1 64750U 25144AC  26156.21444971  .00024407  00000+0  83316-3 0  9990
2 64750  53.1588 134.4001 0001333  94.3342 265.7811 15.30212207 53115
STARLINK-33965          
1 64755U 25147A   26156.37876645  .00043331  00000+0  12836-2 0  9997
2 64755  53.1580 194.3006 0001291  54.5275 305.5848 15.34464841 52230
STARLINK-34371          
1 64756U 25147B   26156.39839975  .00018163  00000+0  59537-3 0  9990
2 64756  53.1563 195.1204 0001005  78.2559 281.8555 15.31714542 52135
STARLINK-34401          
1 64757U 25147C   26156.59735990  .00023510  00000+0  70512-3 0  9993
2 64757  53.1571 193.5252 0001563  92.1856 267.9326 15.34384442 52152
STARLINK-34593          
1 64758U 25147D   26156.69394227  .00016030  00000+0  48440-3 0  9993
2 64758  53.1577 192.7057 0001201  66.7680 293.3449 15.34409093 52243
STARLINK-34598          
1 64759U 25147E   26156.68561285  .00018633  00000+0  56150-3 0  9991
2 64759  53.1583 193.3559 0001434 147.9078 212.2012 15.34384625 52188
STARLINK-34635          
1 64761U 25147G   26156.41665307  .00011691  00000+0  35666-3 0  9991
2 64761  53.1575 194.5256 0001188 124.7406 235.3709 15.34394557 52198
STARLINK-34638          
1 64762U 25147H   26156.57631015  .00021666  00000+0  65074-3 0  9997
2 64762  53.1578 193.3926 0001022  91.2309 268.8811 15.34388229 52228
STARLINK-34534          
1 64763U 25147J   26156.60154219  .00022881  00000+0  68626-3 0  9994
2 64763  53.1569 193.5470 0001158  85.5685 274.5450 15.34400307 52223
STARLINK-34261          
1 64764U 25147K   26156.56999699  .00035240  00000+0  10487-2 0  9993
2 64764  53.1582 193.3497 0001175  80.1374 279.9762 15.34414918 52263
STARLINK-34566          
1 64765U 25147L   26156.39140396  .00014111  00000+0  42798-3 0  9992
2 64765  53.1577 194.3658 0001148  84.1578 275.9555 15.34400487 52192
STARLINK-34645          
1 64766U 25147M   26156.38635890  .00019468  00000+0  66779-3 0  9995
2 64766  53.1568 195.7529 0001295  86.6008 273.5140 15.30195324 52172
STARLINK-34639          
1 64767U 25147N   26156.59312464  .00029367  00000+0  87677-3 0  9997
2 64767  53.1553 193.4909 0000965  89.8598 270.2515 15.34404065 52175
STARLINK-34609          
1 64768U 25147P   26156.35268525  .00023320  00000+0  79647-3 0  9991
2 64768  53.1559 185.6022 0001095  94.8842 265.2284 15.30222524 52311
STARLINK-34246          
1 64769U 25147Q   26156.71076705  .00051877  00000+0  15379-2 0  9998
2 64769  53.1561 192.8127 0001147  75.6727 284.4402 15.34359817 52245
STARLINK-34618          
1 64770U 25147R   26156.69184041  .00022638  00000+0  67923-3 0  9996
2 64770  53.1584 192.6910 0001330  65.8998 294.2144 15.34394934 52178
STARLINK-34541          
1 64771U 25147S   26156.70866750  .00026481  00000+0  79206-3 0  9990
2 64771  53.1574 192.7914 0001075 129.0010 231.1088 15.34402442 52178
STARLINK-34652          
1 64772U 25147T   26156.51956554  .00018136  00000+0  54667-3 0  9994
2 64772  53.1567 193.7430 0000941  89.2850 270.8261 15.34394860 52217
STARLINK-34612          
1 64773U 25147U   26156.57209653  .00029300  00000+0  87541-3 0  9994
2 64773  53.1586 193.3624 0001064  81.7803 278.3320 15.34382701 52223
STARLINK-34621          
1 64774U 25147V   26156.38002441  .00021264  00000+0  72729-3 0  9993
2 64774  53.1579 195.7100 0002112  25.1701 334.9402 15.30231105 52109
STARLINK-34657          
1 64775U 25147W   26156.59522713  .00025752  00000+0  77064-3 0  9999
2 64775  53.1567 193.5057 0001120  98.0628 262.0502 15.34401732 52223
STARLINK-34637          
1 64776U 25147X   26156.60785242  .00023652  00000+0  70905-3 0  9994
2 64776  53.1569 193.5806 0001235 100.8853 259.2288 15.34394513 52156
STARLINK-34537          
1 64778U 25147Z   26156.36894956  .00024742  00000+0  84438-3 0  9999
2 64778  53.1583 172.6095 0000965 108.5820 251.5286 15.30213252 52520
STARLINK-34585          
1 64779U 25147AA  26156.73601588  .00010306  00000+0  31562-3 0  9999
2 64779  53.1567 192.9465 0002031 144.1498 215.9641 15.34411698 52192
STARLINK-34491          
1 64780U 25147AB  26156.69603529  .00056367  00000+0  16697-2 0  9991
2 64780  53.1585 192.7078 0001198  79.3815 280.7323 15.34347457 52241
